      2.10          N: GNSS NAV DATA                        RINEX VERSION / TYPE
fic2rin                                 07/14/2021 00:17:24 PGM / RUN BY / DATE
                                                            END OF HEADER
22 21  7 14  0  0  0.0-5.642985925078e-04 9.549694368616e-12 0.000000000000e+00
    5.000000000000e+01-9.484375000000e+01 5.398796310108e-09 7.402840900209e-01
   -4.960224032402e-06 6.923752487637e-03 4.068017005920e-06 5.153789299011e+03
    2.592000000000e+05 5.215406417847e-08 2.905999119579e+00-1.043081283569e-07
    9.358818723794e-01 2.909687500000e+02-9.216546517357e-01-8.721077553600e-09
   -1.017899542459e-10 1.000000000000e+00 2.166000000000e+03 0.000000000000e+00
    2.400000000000e+00 0.000000000000e+00-1.769512891769e-08 5.000000000000e+01
    2.520000000000e+05 4.000000000000e+00
32 21  7 14  0  0  0.0 1.420686021447e-05-2.046363078989e-12 0.000000000000e+00
    1.040000000000e+02-4.393750000000e+01 4.467686097059e-09 2.501772578424e+00
   -2.296641469002e-06 5.038288421929e-03 1.197867095470e-05 5.153697574615e+03
    2.592000000000e+05-5.401670932770e-08-2.236725190159e+00-7.450580596924e-08
    9.573850770113e-01 1.450937500000e+02-2.359238840270e+00-7.804253649919e-09
    2.503675716715e-10 1.000000000000e+00 2.166000000000e+03 0.000000000000e+00
    2.400000000000e+00 0.000000000000e+00 4.656612873077e-10 1.040000000000e+02
    2.520000000000e+05 4.000000000000e+00
19 21  7 14  0  0  0.0 2.595083788037e-05 5.002220859751e-12 0.000000000000e+00
    1.060000000000e+02 8.934375000000e+01 3.654080778560e-09-2.046445523173e+00
    4.962086677551e-06 9.305590065196e-03 9.000301361084e-06 5.153648992538e+03
    2.592000000000e+05 4.097819328308e-08 1.017675121682e+00 1.806765794754e-07
    9.803641319183e-01 2.137500000000e+02 1.888008557649e+00-7.629246360163e-09
    1.439345668810e-10 1.000000000000e+00 2.166000000000e+03 0.000000000000e+00
    3.400000000000e+00 0.000000000000e+00-1.536682248116e-08 1.060000000000e+02
    2.520000000000e+05 4.000000000000e+00
13 21  7 14  0  0  0.0 1.573478803039e-04 5.002220859751e-12 0.000000000000e+00
    8.200000000000e+01-9.093750000000e+00 4.418398329740e-09 1.245395515859e+00
   -4.004687070847e-07 5.118049681187e-03 1.094304025173e-05 5.153685613632e+03
    2.592000000000e+05-1.043081283569e-07-2.097567922523e+00 8.568167686462e-08
    9.680535080457e-01 1.734687500000e+02 9.555530895703e-01-7.914258232051e-09
    3.132273328900e-10 1.000000000000e+00 2.166000000000e+03 0.000000000000e+00
    2.400000000000e+00 0.000000000000e+00-1.117587089539e-08 8.200000000000e+01
    2.520000000000e+05 4.000000000000e+00
26 21  7 14  0  0  0.0 1.102359965444e-04 4.547473508865e-12 0.000000000000e+00
    6.100000000000e+01-1.550000000000e+01 5.035209736696e-09-2.677884588939e+00
   -8.102506399155e-07 5.921706324443e-03 7.478520274162e-06 5.153585372925e+03
    2.592000000000e+05 0.000000000000e+00-1.803539419056e-01-3.352761268616e-08
    9.415103063234e-01 2.251562500000e+02 3.015626705528e-01-8.223913987599e-09
   -4.871631494435e-10 1.000000000000e+00 2.166000000000e+03 0.000000000000e+00
    2.400000000000e+00 0.000000000000e+00 6.984919309616e-09 6.100000000000e+01
    2.520000000000e+05 4.000000000000e+00
25 21  7 14  0  0  0.0 1.730066724122e-04 6.707523425575e-12 0.000000000000e+00
    8.500000000000e+01-9.500000000000e+00 4.476615040414e-09-2.003675604857e+00
   -4.488974809647e-07 9.829797083512e-03 8.167698979378e-06 5.153598630905e+03
    2.592000000000e+05 1.341104507446e-07-1.374341095966e-01-9.685754776001e-08
    9.606306397677e-01 2.225000000000e+02 9.719130150954e-01-7.826397429439e-09
   -5.143071372424e-10 1.000000000000e+00 2.166000000000e+03 0.000000000000e+00
    2.400000000000e+00 0.000000000000e+00 5.587935447693e-09 8.500000000000e+01
    2.520000000000e+05 4.000000000000e+00
20 21  7 14  0  0  0.0 5.202223546803e-04-3.410605131648e-13 0.000000000000e+00
    5.800000000000e+01-9.050000000000e+01 5.251647323619e-09 6.206977024136e-01
   -4.714354872704e-06 6.068450049497e-03 4.349276423454e-06 5.151759227753e+03
    2.592000000000e+05 8.940696716309e-08 2.859674509287e+00 9.313225746155e-09
    9.391455899492e-01 2.869687500000e+02 3.043139086089e+00-8.593929400226e-09
   -1.292910997790e-10 1.000000000000e+00 2.166000000000e+03 0.000000000000e+00
    2.400000000000e+00 0.000000000000e+00-8.381903171539e-09 5.800000000000e+01
    2.520000000000e+05 4.000000000000e+00
17 21  7 14  0  0  0.0 4.733726382256e-04 5.911715561524e-12 0.000000000000e+00
    6.600000000000e+01 7.543750000000e+01 3.653009305358e-09 1.817373670645e+00
    3.898516297340e-06 1.336946466472e-02 9.791925549507e-06 5.153631309509e+03
    2.592000000000e+05 1.825392246246e-07 9.725660441710e-01-2.924352884293e-07
    9.818201128401e-01 1.975625000000e+02-1.563149387743e+00-7.576029857767e-09
    1.246480492344e-10 1.000000000000e+00 2.166000000000e+03 0.000000000000e+00
    3.400000000000e+00 0.000000000000e+00-1.117587089539e-08 6.600000000000e+01
    2.520000000000e+05 4.000000000000e+00
14 21  7 14  0  0  0.0 4.800874739885e-05-8.981260180008e-12 0.000000000000e+00
    2.130000000000e+02-1.759375000000e+01 4.545189325379e-09-1.682892573836e+00
   -8.773058652878e-07 8.983163861558e-04 8.298084139824e-06 5.153750183105e+03
    2.592000000000e+05-7.078051567078e-08-9.126105908085e-02 1.862645149231e-08
    9.567547729052e-01 2.182812500000e+02 2.946783808322e+00-8.004261981068e-09
   -4.810914679621e-10 1.000000000000e+00 2.166000000000e+03 0.000000000000e+00
    2.400000000000e+00 0.000000000000e+00-7.916241884232e-09 2.130000000000e+02
    2.520000000000e+05 4.000000000000e+00
23 21  7 14  0  0  0.0 8.498271927238e-05-5.115907697473e-12 0.000000000000e+00
    8.200000000000e+01-1.060312500000e+02 4.586619622546e-09-8.138248224076e-01
   -5.500391125679e-06 1.386093557812e-03 5.790963768959e-06 5.153662681580e+03
    2.592000000000e+05 1.862645149231e-08 2.980529223463e+00 4.097819328308e-08
    9.651417685658e-01 2.694375000000e+02 2.614789318391e+00-8.264987127032e-09
   -1.632210845276e-10 1.000000000000e+00 2.166000000000e+03 0.000000000000e+00
    2.400000000000e+00 0.000000000000e+00-8.381903171539e-09 8.500000000000e+02
    2.520000000000e+05 4.000000000000e+00
18 21  7 14  0  0  0.0 3.411495126784e-04-2.614797267597e-12 0.000000000000e+00
    6.900000000000e+01 4.425000000000e+01 4.551975322329e-09-8.577849562436e-02
    2.335757017136e-06 1.656487584114e-03 2.546235918999e-06 5.153654140472e+03
    2.592000000000e+05 3.725290298462e-08 1.980967179554e+00-2.607703208923e-08
    9.684028148472e-01 3.327500000000e+02 2.886853340138e+00-8.404992958836e-09
    3.035840740667e-10 1.000000000000e+00 2.166000000000e+03 0.000000000000e+00
    2.400000000000e+00 0.000000000000e+00-8.381903171539e-09 5.810000000000e+02
    2.520000000000e+05 4.000000000000e+00
11 21  7 14  0  0  0.0 1.494074240327e-05 9.208633855451e-12 0.000000000000e+00
    1.920000000000e+02 3.640625000000e+01 4.755555230821e-09 2.950172315730e+00
    1.663342118263e-06 5.004659760743e-04 2.300366759300e-06 5.153666887283e+03
    2.592000000000e+05 1.862645149231e-08 2.018794390684e+00 1.117587089539e-08
    9.596642112150e-01 3.345312500000e+02 1.657289073154e+00-8.431779788901e-09
    2.271523189487e-10 1.000000000000e+00 2.166000000000e+03 0.000000000000e+00
    2.400000000000e+00 6.300000000000e+01-5.587935447693e-09 1.920000000000e+02
    2.520000000000e+05 4.000000000000e+00
28 21  7 14  0  0  0.0 5.383267998695e-04-6.593836587854e-12 0.000000000000e+00
    8.600000000000e+01-1.440625000000e+01 4.091599002950e-09 2.324417125578e+00
   -7.152557373047e-07 1.745806704275e-02 8.471310138702e-06 5.153726766586e+03
    2.592000000000e+05 1.993030309677e-07-4.113789861003e-02 2.048909664154e-08
    9.724668056601e-01 2.175937500000e+02-1.345254712104e+00-7.527456405917e-09
   -5.996678357152e-10 1.000000000000e+00 2.166000000000e+03 0.000000000000e+00
    4.850000000000e+00 6.300000000000e+01-1.117587089539e-08 8.600000000000e+01
    2.520000000000e+05 4.000000000000e+00
32 21  7 13 23 59 44.0 1.420732587576e-05-2.046363078989e-12 0.000000000000e+00
    1.100000000000e+01-4.393750000000e+01 4.467686097059e-09 2.499439579577e+00
   -2.296641469002e-06 5.038288538344e-03 1.197867095470e-05 5.153697576523e+03
    2.591840000000e+05-5.587935447693e-08-2.236725068737e+00-7.450580596924e-08
    9.573850696967e-01 1.450937500000e+02-2.359239511750e+00-7.804610807653e-09
    2.503675716715e-10 1.000000000000e+00 2.166000000000e+03 0.000000000000e+00
    2.400000000000e+00 0.000000000000e+00 4.656612873077e-10 1.100000000000e+01
    2.588400000000e+05 4.000000000000e+00
19 21  7 13 23 59 44.0 2.595037221909e-05 5.002220859751e-12 0.000000000000e+00
    1.000000000000e+01 8.934375000000e+01 3.654080778560e-09-2.048779279812e+00
    4.962086677551e-06 9.305588784628e-03 9.000301361084e-06 5.153648996353e+03
    2.591840000000e+05 4.097819328308e-08 1.017675250419e+00 1.806765794754e-07
    9.803641348442e-01 2.137500000000e+02 1.888008507910e+00-7.629246360163e-09
    1.439345668810e-10 1.000000000000e+00 2.166000000000e+03 0.000000000000e+00
    2.400000000000e+00 0.000000000000e+00-1.536682248116e-08 1.000000000000e+01
    2.589300000000e+05 4.000000000000e+00
